{
"type": "FeatureCollection",
"name": "dati_circoscrizione",
"crs": { "type": "name", "properties": { "name": "urn:ogc:def:crs:OGC:1.3:CRS84" } },
"features": [
{ "type": "Feature", "properties": { "nome": "Mercatino del Riuso", "servizio": "Servizi e attività economiche", "attore": "Volontarie + Circoscrizione di Povo", "indirizzo": "via Don T. Dallafior 2 (ingresso da Piazzale Merler) o civico 5 (ingresso lato Chiesa)", "referente": "3204345956 Segretaria della circoscrizione", "contatti": "-", "accesso": "Accesso libero", "costi": "Gratuito", "accesso_temporale": "Aperto in determinati giorni/orari", "lunedi": "Pomeriggio", "martedi": "-", "mercoledi": "-", "giovedi": "Pomeriggio", "sorgente": null, "venerdi": "-", "sabato": "-", "domenica": "-", "periodo_apertura": "Sempre aperto", "mesi_apertura": "-", "occasioni_apertura": "-", "descrizione": "Mercatino del riuso gestito da volontarie, attivo tutti i lunedì e giovedì dalle 14.00 alle 16.00 presso la Circoscrizione di Povo, nell'atrio all'ultimo piano \n(accessibile anche con l'ascensore). E' possibile portare articoli e capi di vestiario da regalare (selezionati, puliti e in ottimo stato), o ritirarli gratuitamente per il proprio uso personale e familiare.\nTra le cose accettate, oltre ad abbigliamento e scarpe, che vengono suddivisi per stagione, taglia e tipologia, come se fosse un vero negozio, vi sono giochi, articoli per la casa, giocattoli e piccoli elettrodomestici. \nQualora si volessero cedere elementi di arredo o oggetti ingombranti, si segnala il sito internet http://www.tuttapovo.it/riuso/ nel quale è possibile caricare annunci o reperire informazioni e contatti per gli articoli ai quali si è interessati.", "destinatari": "Tutte la età", "altri": "Studenti, Famiglie, Persone fragili o in situazione di svantaggio sociale, Tutti", "disabili": "Si, in autonomia", "parcheggi100m_riservati": "Si", "parcheggi100m_gratuiti": "Si", "parcheggi100m_pagamento": "-", "parcheggi100m_disabili": "Si", "data_aggiornamento": "7/8/2025", "note": "-", "url": "https://www.tuttapovo.it/riuso/", "foto": "https://i.postimg.cc/15wMjnf9/470174382-1091293146129212-4158211521558568548-n.jpg", "osm_id": null }, "geometry": { "type": "Point", "coordinates": [ 11.153424, 46.064879 ] } },
{ "type": "Feature", "properties": { "nome": "Bookcrossing", "servizio": "Cultura e tempo libero", "attore": "Circoscrizione", "indirizzo": "Via don T.Dallafior 2 - Piazzale C. Merler", "referente": "Circoscrizione di Povo tel. 0461 889920", "contatti": "presidente.circoscrizionepovo@comune.trento.it - circoscrizione.povo@comune.trento.it", "accesso": "Accesso libero", "costi": "Gratuito", "accesso_temporale": "Aperto in determinati giorni/orari", "lunedi": "Mattina, Pomeriggio", "martedi": "Pomeriggio", "mercoledi": "Pomeriggio", "giovedi": "Mattina, Pomeriggio", "sorgente": null, "venerdi": "Pomeriggio", "sabato": "-", "domenica": "-", "periodo_apertura": "Sempre aperto", "mesi_apertura": "-", "occasioni_apertura": "-", "descrizione": "Punto di scambio libri a disposizione di tutti. Liberamente ognuno può lasciare dei volumi in buono stato e/o prendere i libri che desidera leggere. Non si sono limitazioni per quanto concerne le tipologie di libri (saggi, romanzi, fumetti, ecc.). Si chiede di non lasciare vecchie riviste o enciclopedie. In sostanza: lasciate i libri che donereste ad un amico, per il resto c'è il CRM.", "destinatari": "Tutte la età", "altri": "Tutti", "disabili": "Si, in autonomia", "parcheggi100m_riservati": "-", "parcheggi100m_gratuiti": "Si", "parcheggi100m_pagamento": "-", "parcheggi100m_disabili": "Si", "data_aggiornamento": "12/8/2025", "note": "Il servizio è sempre accessibile negli orari della biblioteca, con entrata sia da Via don Dallafior che da Piazzale Merler e ogniqualvolta il centro civico è aperto per qualsiasi altra attività", "url": "-", "foto": "https://i.postimg.cc/rFjgT6CC/Screenshot-From-2026-07-06-00-08-37.png", "osm_id": null }, "geometry": { "type": "Point", "coordinates": [ 11.153424, 46.064879 ] } },
{ "type": "Feature", "properties": { "nome": "Bookcrossing", "servizio": "Cultura e tempo libero", "attore": "Circoscrizione", "indirizzo": "Via Salè", "referente": "Circoscrizione di Povo tel. 0461 889920", "contatti": "presidente.circoscrizionepovo@comune.trento.it - circoscrizione.povo@comune.trento.it", "accesso": "Accesso libero", "costi": "Gratuito", "accesso_temporale": "Sempre aperto", "lunedi": "-", "martedi": "-", "mercoledi": "-", "giovedi": "-", "sorgente": null, "venerdi": "-", "sabato": "-", "domenica": "-", "periodo_apertura": "Sempre aperto", "mesi_apertura": "-", "occasioni_apertura": "-", "descrizione": "E' una piccola libreria riparata da una tettoia, in cui ognuno può lasciare dei libri oppure prendere quelli che desidera. Può portarli via o leggerli in loco e poi rimetterli a posto. Si chiede di non lasciare vecchie riviste, libri obsoleti o enciclopedie: lasciare, cioè, i libri che si donerebbero ad un amico, cosicchè tutti possano beneficiarne.", "destinatari": "Tutte la età", "altri": "Tutti", "disabili": "Si, in autonomia", "parcheggi100m_riservati": "Si", "parcheggi100m_gratuiti": "Si", "parcheggi100m_pagamento": "-", "parcheggi100m_disabili": "Si", "data_aggiornamento": "12/8/2025", "note": "La libreria si trova all'interno del parco del Salè.", "url": "-", "foto": "https://i.postimg.cc/rFjgT6CC/Screenshot-From-2026-07-06-00-08-37.png", "osm_id": null }, "geometry": { "type": "Point", "coordinates": [ 11.152217, 46.062572 ] } },
{ "type": "Feature", "properties": { "nome": "Bookcrossing", "servizio": "Cultura e tempo libero", "attore": "Pro Loco Oltrecastello Aps", "indirizzo": "Parco di Oltrecastello", "referente": "Pro Loco Oltrecastello Aps", "contatti": "-", "accesso": "Accesso libero", "costi": "Gratuito", "accesso_temporale": "Sempre aperto", "lunedi": "-", "martedi": "-", "mercoledi": "-", "giovedi": "-", "sorgente": null, "venerdi": "-", "sabato": "-", "domenica": "-", "periodo_apertura": "Sempre aperto", "mesi_apertura": "-", "occasioni_apertura": "-", "descrizione": "E' una piccola libreria riparata da una tettoia, in cui ognuno può lasciare dei libri oppure prendere quelli che desidera. Può portarli via o leggerli in loco e poi rimetterli a posto. Si chiede di non lasciare vecchie riviste, libri obsoleti o enciclopedie: lasciare, cioè, i libri che si donerebbero ad un amico, cosicchè tutti possano beneficiarne.", "destinatari": "Tutte la età", "altri": "Tutti", "disabili": "Si, in autonomia", "parcheggi100m_riservati": "Si", "parcheggi100m_gratuiti": "Si", "parcheggi100m_pagamento": "-", "parcheggi100m_disabili": "Si", "data_aggiornamento": "6/7/2026", "note": "La libreria si trova all'interno del parco del Salè.", "url": "https://www.comune.trento.it/Amministrazione/Documenti-e-dati/Accordi-tra-enti/Patto-di-collaborazione-Casetta-del-Bookcrossing-nel-parco-di-Oltrecastello-2026", "foto": "https://i.postimg.cc/NjRVmC1y/623169596-1327787112712206-1615473390180365531-n.jpg", "osm_id": null }, "geometry": { "type": "Point", "coordinates": [ 11.162166, 46.072216 ] } },
{ "type": "Feature", "properties": { "nome": "Sala video Sergio Nichelatti", "servizio": "Cultura e tempo libero", "attore": "Comune di Trento", "indirizzo": "Povo - Piazzale C. Merler, 1", "referente": "Circoscrizione di Povo tel. 0461 889920", "contatti": "circoscrizione.povo@comune.trento.it", "accesso": "Con prenotazione", "costi": "A pagamento", "accesso_temporale": "Sempre aperto", "lunedi": "-", "martedi": "-", "mercoledi": "-", "giovedi": "-", "sorgente": null, "venerdi": "-", "sabato": "-", "domenica": "-", "periodo_apertura": "Sempre aperto", "mesi_apertura": "-", "occasioni_apertura": "-", "descrizione": "Sala pubblica del Comune di Trento, collocata al piano terra del Centro civico (via Don T. Dallafior n. 7, Povo), prenotabile per conferenze, riunioni, incontri (no feste di compleanno, balli, ecc...). E' una sala rettangolare di 102 mq con 72 posti a sedere, interamente sbarrierata, dotata di videoproiettore e impianto di amplificazione: possibilità di parcheggio nell'attiguo Piazzale Merler e nell'autorimessa del Centro civico. Per prenotarla occorre accedere con SPID al portale Spazi comuni: https://spazicomuni.comune.trento.it/, scegliere Circoscrizione 7 - Povo e poi la sala, verificandone la disponibilità sul calendario (si raccomanda di effettuare la prenotazione con un anticipo di 15-20 giorni rispetto alla data desiderata).\nI costi, indicati nel sito in fase di prenotazione, variano in base alla tipologia di utente ed all'orario di utilizzo", "destinatari": "Tutte la età", "altri": "Tutti", "disabili": "Si, in autonomia", "parcheggi100m_riservati": "Si", "parcheggi100m_gratuiti": "Si", "parcheggi100m_pagamento": "-", "parcheggi100m_disabili": "Si", "data_aggiornamento": "12/8/2025", "note": "Sala adatta ad incontri divulgativi, dibattiti, conferenze, riunioni condominiali, concerti, performance teatrali, ecc. Dotata di sedie impilabili, può essere utilizzata per incontri formativi, mostre d'arte, giochi, dimostrazioni pratiche (es. di soccorso).", "url": "https://www.comune.trento.it/Vivere-il-Comune/Luoghi/07-Sala-Video-Nichelatti-Povo", "foto": "https://i.postimg.cc/9FgT1cBw/https-s3-eu-west-1-amazonaws-com-static-opencity-opencontent-it-var-trento-storage-2.jpg", "osm_id": null }, "geometry": { "type": "Point", "coordinates": [ 11.153304, 46.064816 ] } },
{ "type": "Feature", "properties": { "nome": "Monumento “Ai Caduti di tutte le Guerre” di Povo", "servizio": "Luoghi/monumenti di interesse storico/artistico e fontane", "attore": "Comune di Trento", "indirizzo": "via Don T. Dallafior n. 1", "referente": "Circoscrizione di Povo - 0461 889920", "contatti": "circoscrizione.povo@comune.trento.it", "accesso": "Accesso libero", "costi": "Gratuito", "accesso_temporale": "Sempre aperto", "lunedi": "-", "martedi": "-", "mercoledi": "-", "giovedi": "-", "sorgente": null, "venerdi": "-", "sabato": "-", "domenica": "-", "periodo_apertura": "Sempre aperto", "mesi_apertura": "-", "occasioni_apertura": "-", "descrizione": "Il monumento presenta una struttura in pietra di forma ondulata: nella parte anteriore si trovano una statua in bronzo raffigurante una donna che sostiene un uomo ai suoi piedi, una lanterna in bronzo e la scritta dedicatoria. Sul lato opposto invece si trova la lista dei caduti e dispersi delle due Guerre Mondiali.", "destinatari": "Tutte la età", "altri": "Tutti", "disabili": "Si, previa assistenza", "parcheggi100m_riservati": "Si", "parcheggi100m_gratuiti": "Si", "parcheggi100m_pagamento": "-", "parcheggi100m_disabili": "Si", "data_aggiornamento": "13/8/2025", "note": "-", "url": "https://www.pietredellamemoria.it/pietre/monumento-ai-caduti-di-tutte-le-guerre-di-povo-trento/", "foto": "https://www.pietredellamemoria.it/wp-content/themes/pietredellamemoria/img/pdm_header_logo_white.png", "osm_id": "node/13990384642" }, "geometry": { "type": "Point", "coordinates": [ 11.154211, 46.065383 ] } },
{ "type": "Feature", "properties": { "nome": "Lapide commemorativa di Giannantonio Manci, partigiano italiano, eroe della resistenza", "servizio": "Luoghi/monumenti di interesse storico/artistico e fontane", "attore": "Comune di Trento", "indirizzo": "Piazza G. Manci n. 6", "referente": "Circoscrizione di Povo tel. 0461 889920", "contatti": "circoscrizione.povo@comune.trento.it", "accesso": "Accesso libero", "costi": "Gratuito", "accesso_temporale": "Sempre aperto", "lunedi": "-", "martedi": "-", "mercoledi": "-", "giovedi": "-", "sorgente": null, "venerdi": "-", "sabato": "-", "domenica": "-", "periodo_apertura": "Sempre aperto", "mesi_apertura": "-", "occasioni_apertura": "-", "descrizione": "Martire della Resistenza trentina (Trento, 14 dicembre 1901 – Bolzano, 6 luglio 1944). Nel 1940-41 Manci prestò servizio a Trento, col grado di capitano, presso il deposito dell'11° Reggimento alpini di Trento. L'8 settembre 1943, all'annuncio dell'armistizio, entrò nelle file della Resistenza, impegnandosi nell'organizzazione del movimento partigiano trentino. Ai primi di luglio del 1944, in seguito a delazione, fu arrestato dai tedeschi; trasportato a Bolzano e rinchiuso in quelle carceri, per non cedere alle torture si tolse la vita, gettandosi da una finestra durante un interrogatorio. Ogni anno, in prossimità di questa targa e di un'altra lapide a lui dedicata in centro città, al n. 12 della Galleria dei partigiani, si svolge una cerimonia commemorativa.", "destinatari": "Tutte la età", "altri": "Tutti", "disabili": "Si, in autonomia", "parcheggi100m_riservati": "No", "parcheggi100m_gratuiti": "Si", "parcheggi100m_pagamento": "-", "parcheggi100m_disabili": "Si", "data_aggiornamento": "13/8/2025", "note": "-", "url": "https://it.wikipedia.org/wiki/Giannantonio_Manci", "foto": "https://i.postimg.cc/YjBcB56q/Chat-GPT-Image-Jul-6-2026-12-16-43-AM.png", "osm_id": "node/13990737741" }, "geometry": { "type": "Point", "coordinates": [ 11.154159, 46.066263 ] } },
{ "type": "Feature", "properties": { "nome": "Forte Sella di Roncogno", "servizio": "Luoghi/monumenti di interesse storico/artistico e fontane", "attore": "Comune di Trento", "indirizzo": "Passo del Cimirlo, 87", "referente": "info@cngeitrento.it", "contatti": "trento@pec.cngei.it", "accesso": "Con prenotazione", "costi": "Gratuito", "accesso_temporale": "Aperto in determinati giorni/orari", "lunedi": "-", "martedi": "-", "mercoledi": "-", "giovedi": "-", "sorgente": null, "venerdi": "-", "sabato": "-", "domenica": "-", "periodo_apertura": "Solo in determinate occasioni", "mesi_apertura": "-", "occasioni_apertura": "Attività degli Scout CNGEI o di rilevanza circoscrizionale", "descrizione": "Forte Roncogno, la cui definizione corretta è “Batteria Roncogno”, è un forte austriaco alle pendici del Monte Celva, al passo del Cimirlo, che faceva parte del grande sistema di fortificazioni austriache al confine italiano.\nUbicato a 8 Km da Trento,  a 805 m di altitudine, ha pianta a ferro di cavallo ed è stato realizzato con pietrame calcareo reperito in zona; sbarrava il passo Cimirlo, insieme alle opere di Civezzano sul fronte opposto, e costituiva uno dei capisaldi del fronte est della fortezza di Trento.\nI lavori per la sua realizzazione durarono dal 1879 al 1881. Fin da prima dello scoppio del primo conflitto mondiale fu ritenuto obsoleto dagli austro-ungarici e quindi disarmato; i suoi armamenti vennero spostati in apposite caverne, sulle pendici settentrionali del Celva. Questo sistema di trinceramenti e batterie sono ancora oggi visitabili se muniti di apposite torce. Di particolare interesse in prossimità del Forte risulta la visita del “Sentiero dei 100 scalini”. Nel 1949 divenne proprietà del comune di Trento, che tra il 1989 e il 2010 ha poi condotto delle operazioni di restauro. Dal 2016 è assegnato in concessione di utilizzo alla Sezione scout CNGEI sezione di Trento.", "destinatari": "Tutte la età", "altri": "Tutti", "disabili": "Si, previa assistenza", "parcheggi100m_riservati": "Si", "parcheggi100m_gratuiti": "Si", "parcheggi100m_pagamento": "No", "parcheggi100m_disabili": "No", "data_aggiornamento": "13/8/2025", "note": "-", "url": "https://www.cngeitrento.it/forte-roncogno/", "foto": "https://www.cngeitrento.it/wp-content/uploads/2016/07/20160610_155210-1024x309.jpg", "osm_id": "way/79387122" }, "geometry": { "type": "Point", "coordinates": [ 11.185198, 46.070821 ] } },
{ "type": "Feature", "properties": { "nome": "Biblioteca Comunale", "servizio": "Cultura e tempo libero", "attore": "Comune di Trento", "indirizzo": "Via don Tommaso Dallafior, 5", "referente": "Telefono biblioteca di Povo:0461 889917 / 0461 889918", "contatti": "biblioteca.povo@comune.trento.it", "accesso": "Accesso libero", "costi": "Gratuito", "accesso_temporale": "Aperto in determinati giorni/orari", "lunedi": "Mattina, Pomeriggio", "martedi": "Pomeriggio", "mercoledi": "Pomeriggio", "giovedi": "Mattina, Pomeriggio", "sorgente": null, "venerdi": "Mattina", "sabato": "-", "domenica": "-", "periodo_apertura": "Sempre aperto", "mesi_apertura": "-", "occasioni_apertura": "-", "descrizione": "La biblioteca è al primo piano del Centro Civico di Povo, raggiungibile anche con ascensore: dispone di 28 posti a sedere al tavolo e di 14 su divani e poltrone, di una sala sala dedicata ai bambini più piccoli e di un patrimonio di circa 15.000/15.500 volumi. Oltre alle classiche sezioni, comuni a tutte le sedi periferiche del comune di Trento, ci sono due sezioni che si occupano di specifiche tematiche: \n- Educando - crescendo: sezione rivolta ai neo-genitori che comprende tutta la manualistica di riferimento, saggi, self-help a tema gravidanza, figli, problemi dell'adolescenza;\n- Futurama: una sezione tematica con un taglio sociologico e antropologico, dedicata ai temi dell'intelligenza artificiale e delle nuove tecnologie. \nGli orari di apertura variano sensibilmente tra periodo estivo e invernale. \nPer informazioni consultare il sito: https://bibcom.trento.it/Orari-e-sedi/Sedi-periferiche/Povo", "destinatari": "Tutte la età", "altri": "Tutti", "disabili": "Si, in autonomia", "parcheggi100m_riservati": "Si", "parcheggi100m_gratuiti": "Si", "parcheggi100m_pagamento": "-", "parcheggi100m_disabili": "Si", "data_aggiornamento": "13/8/2025", "note": "-", "url": "https://www.comune.trento.it/Vivere-il-Comune/Luoghi/Biblioteca-periferica-Povo", "foto": "https://i.postimg.cc/wT5xT27C/https-s3-eu-west-1-amazonaws-com-static-opencity-opencontent-it-var-trento-storage-2.jpg", "osm_id": "node/3292585477" }, "geometry": { "type": "Point", "coordinates": [ 11.153418, 46.064937 ] } },
{ "type": "Feature", "properties": { "nome": "Anfiteatro all'aperto", "servizio": "Cultura e tempo libero", "attore": "Comune di Trento - Ufficio Parchi e Giardini", "indirizzo": "Piazza Manci, Povo (nel parco adiacente la Banca per il Trentino Alto Adige - filiale di Povo))", "referente": "Ufficio parchi e giardini - 0461 884528", "contatti": "ufficio.verde@comune.trento.it", "accesso": "Accesso libero", "costi": "Gratuito", "accesso_temporale": "Sempre aperto", "lunedi": "-", "martedi": "-", "mercoledi": "-", "giovedi": "-", "sorgente": null, "venerdi": "-", "sabato": "-", "domenica": "-", "periodo_apertura": "Sempre aperto", "mesi_apertura": "-", "occasioni_apertura": "-", "descrizione": "Spazio emiciclico all'aperto, collocato all'interno del parco adiacente alla Banca per il Trentino Alto Adige-filiale di Povo, normalmente accessibile agli utilizzatori di quest'area verde. Può essere utilizzato anche per eventi e manifestazioni previa presentazione della richiesta all'Ufficio parchi e giardini del Comune di Trento sia per la verifica della disponibilità che per la quantificazione dei costi di occupazione suolo pubblico. I posti ricavati sui gradoni in pietra sono circa 100.", "destinatari": "Tutte la età", "altri": "Tutti", "disabili": "Si, previa assistenza", "parcheggi100m_riservati": "Si", "parcheggi100m_gratuiti": "Si", "parcheggi100m_pagamento": "-", "parcheggi100m_disabili": "Si", "data_aggiornamento": "13/8/2025", "note": "gli studenti universitari lo usano come un luogo di pic-nic", "url": "https://spazicomuni.comune.trento.it/Comune/Organi-politici/Circoscrizioni/Circoscrizione-n.-07-Povo/Sale-della-circoscrizione/Anfiteatro-all-aperto-presso-la-Cassa-Rurale-di-Trento-a-Povo", "foto": "https://spazicomuni.comune.trento.it/var/comunetn/storage/images/comune/organi-politici/circoscrizioni/circoscrizione-n.-07-povo/sale-della-circoscrizione/anfiteatro-all-aperto-presso-la-cassa-rurale-di-trento-a-povo/6687258-6-ita-IT/Anfiteatro-all-aperto-presso-la-Cassa-Rurale-di-Trento-a-Povo_imagefull.png", "osm_id": "way/1535651765" }, "geometry": { "type": "Point", "coordinates": [ 11.154953, 46.065413 ] } },
{ "type": "Feature", "properties": { "nome": "Casa Sociale", "servizio": "Cultura e tempo libero", "attore": "Kaleidoscopio Scs con la Circoscrizione di Povo", "indirizzo": "Via Salè 1", "referente": "Paola Rizzolli - Kaleidoscopio - 3299060104", "contatti": "povo.educa@kaleidoscopio.coop", "accesso": "Con prenotazione", "costi": "A pagamento", "accesso_temporale": "Aperto in determinati giorni/orari", "lunedi": "-", "martedi": "-", "mercoledi": "-", "giovedi": "-", "sorgente": null, "venerdi": "-", "sabato": "-", "domenica": "-", "periodo_apertura": "Solo in determinate occasioni", "mesi_apertura": "-", "occasioni_apertura": "La sala si trova all'interno della \"Casa Sociale\", una struttura in uso ad un pool di associazioni aderenti al patto di coesione territoriale PovoEduca, stipulato fra il Comune di Trento e Kaleidoscopio, ente capofila che, assieme alla Circoscrizione, ne gestisce il calendario e la programmazione delle attività. Nei tempi liberi può essere prenotata anche da esterni, associazioni e privati. Per la disponibilità è necessario verificare il calendario con Kaleidoscopio: povo.educa@kaleidoscopio.coop", "descrizione": "La struttura è composta dalla sala Agorà, che può ospitare fino a 130 persone, utilizzabile per conferenze, spettacoli, attività ludico sportive, feste, incontri conviviali, una cucina laboratorio con annessa saletta di appoggio, una sala living, con capienza di circa 30 persone, dotata di divani e armadi, utilizzabile per attività varie, riunioni e incontri; una sala musica al primo piano, per prove di gruppi musicali. Gli spazi della Casa Sociale possono essere prenotati anche da esterni, associazioni e privati, contattando con congruo anticipo la Kaleidoscopio alla mail: povo.educa@kaleidoscopio.coop.\nAmpie porte-finestre danno accesso ad un grande prato con alberi, recintato e ad uso esclusivo. L'eventuale uso della cucina è possibile sia come appoggio per la distribuzione di cibi pronti che per il confezionamento di semplici pasti, previa richiesta dei necessari permessi e nel rispetto delle regole di comportamento illustrate da un responsabile di Kaleidoscopio.", "destinatari": "Tutte la età", "altri": "Tutti", "disabili": "Si, in autonomia", "parcheggi100m_riservati": "Si", "parcheggi100m_gratuiti": "Si", "parcheggi100m_pagamento": "-", "parcheggi100m_disabili": "Si", "data_aggiornamento": "14/8/2025", "note": "La Casa Sociale è stata inaugurata il 14 dicembre 2024. Ora i suoi spazi, totalmente rinnovati, sono utilizzati dalla comunità di Povo per i più diversi scopi:  riunioni, spettacoli musicali e teatrali, feste, attività ludico/sportive, conferenze, attività formative, incontri conviviali fra gruppi, cene solidali, ecc. Alcune associazioni aderiscono al patto per svolgere attività continuative. La Circoscrizione dispone di un certo numero di giornate all'anno di utilizzo a titolo gratuito per attività che coinvolgono tutta la comunità. Per attività occasionali le sale della struttura possono essere prenotate da gruppi o da privati. Per i costi di noleggio e per la verifica della disponibilità, rivolgersi a povo.educa@kaleidoscopio.coop.", "url": "https://www.rainews.it/tgr/trento/video/2024/12/trento-nasce-la-casa-sociale-spazio-autogestito-nel-quartiere-di-povo-362c96d9-6954-43f6-8472-0bfe46f412a1.html", "foto": "https://i.postimg.cc/QtgYWF5P/486407659-1088445473316930-8281386484293365479-n.jpg", "osm_id": "way/78363071" }, "geometry": { "type": "Point", "coordinates": [ 11.152653, 46.064387 ] } },
{ "type": "Feature", "properties": { "nome": "Banca per il Trentino Alto Adige - Bank für Trentino Südtirol", "servizio": "Servizi e attività economiche", "attore": "Banca di Credito Cooperativo Italiano filiale di Povo", "indirizzo": "Piazza Manci 17", "referente": "Direttore di filiale - 0461 206350", "contatti": "filiale010@bancapts.it", "accesso": "Accesso libero", "costi": "Misto", "accesso_temporale": "Aperto in determinati giorni/orari", "lunedi": "Mattina, Pomeriggio", "martedi": "Mattina, Pomeriggio", "mercoledi": "Mattina, Pomeriggio", "giovedi": "Mattina, Pomeriggio", "sorgente": null, "venerdi": "Mattina, Pomeriggio", "sabato": "-", "domenica": "-", "periodo_apertura": "Sempre aperto", "mesi_apertura": "-", "occasioni_apertura": "-", "descrizione": "La filiale di Povo offre, oltre a tutti i servizi bancari (tra cui finanziamenti, investimenti, servizi assicurativi e servizi di pagamento), anche servizio di cassette di sicurezza, servizio di cassa dal lun al ven 8.05-13.20 e consulenza anche il pomeriggio con orario 14.30-16.00, previo appuntamento (per le condizioni consultare la filiale. Condizioni particolari riservate ai soci). E' dotata di ATM per prelievi, ricariche, ecc. e versamenti in cassa continua, accessibile 24 ore su 24.", "destinatari": "Adolescenti (11–17 anni), Giovani (18–30 anni), Adulti (31–64 anni), Anziani (65+)", "altri": "Tutti, E' possibile richiedere l'ammissione a soci, usufruendo di condizioni e servizi riservati", "disabili": "Si, in autonomia", "parcheggi100m_riservati": "Si", "parcheggi100m_gratuiti": "Si", "parcheggi100m_pagamento": "-", "parcheggi100m_disabili": "Si", "data_aggiornamento": "16/8/2025", "note": "Situata al piano terra di un edificio prospicente a Piazza Manci, con parcheggio riservto alla clientela, la filiale è gestita da un direttore di filiale, alcuni operatori di sportello ed alcuni consulenti. \nhttps://www.bancapts.it/\nindirizzo mail della filiale di Povo: filiale010@bancapts.it", "url": "https://www.bancapts.it/filiali/filiale-di-trento-7/", "foto": "https://i.postimg.cc/QM8bVjhS/Screenshot-From-2026-07-06-00-28-35.png", "osm_id": "node/288910331" }, "geometry": { "type": "Point", "coordinates": [ 11.154894, 46.065662 ] } },
{ "type": "Feature", "properties": { "nome": "Sala Multiuso 2 presso Centro civico", "servizio": "Cultura e tempo libero", "attore": "Comune di Trento", "indirizzo": "Via Don T. Dallafior 5", "referente": "Circoscrizione di Povo - 0461 889920", "contatti": "circoscrizione.povo@comune.trento.it", "accesso": "Con prenotazione", "costi": "Misto", "accesso_temporale": "Aperto in determinati giorni/orari", "lunedi": "-", "martedi": "-", "mercoledi": "-", "giovedi": "-", "sorgente": null, "venerdi": "-", "sabato": "-", "domenica": "-", "periodo_apertura": "Solo in determinate occasioni", "mesi_apertura": "-", "occasioni_apertura": "Previa prenotazione", "descrizione": "Sala pubblica del Comune di Trento, collocata al primo piano del Centro civico (via Don T. Dallafior n. 5, Povo), prenotabile per piccole riunioni, incontri, corsi (no feste di compleanno ecc...). E' una sala rettangolare da 52 mq, sbarrierata (raggiungibile tramite ascensore), con possibilità di parcheggio nell'attiguo Piazzale Merler e nell'autorimessa del Centro civico. Per prenotarla occorre accedere con SPID al portale Spazi comuni: https://spazicomuni.comune.trento.it/, scegliere Circoscrizione 7 - Povo e poi la sala, verificandone la disponibilità sul calendario (si raccomanda di effettuare la prenotazione con un anticipo di 15-20 giorni rispetto alla data desiderata).\nI costi, indicati nel sito in fase di prenotazione, variano in base alla tipologia di utente ed all'orario di utilizzo. Per informazioni: Circoscrizione di Povo tel. 0461 889920 - circoscrizione.povo@comune.trento.it", "destinatari": "Tutte la età", "altri": "Tutti", "disabili": "Si, in autonomia", "parcheggi100m_riservati": "Si", "parcheggi100m_gratuiti": "Si", "parcheggi100m_pagamento": "-", "parcheggi100m_disabili": "Si", "data_aggiornamento": "22/8/2025", "note": "-", "url": "https://www.comune.trento.it/Vivere-il-Comune/Luoghi/07-Sala-Multiuso-2-Povo", "foto": "https://i.postimg.cc/VsxWnqzL/https-s3-eu-west-1-amazonaws-com-static-opencity-opencontent-it-var-trento-storage-2.jpg", "osm_id": null }, "geometry": { "type": "Point", "coordinates": [ 11.153418, 46.064937 ] } },
{ "type": "Feature", "properties": { "nome": "Bar In Centro", "servizio": "Ristorazione e agriturismi", "attore": "Privato", "indirizzo": "Piazza Manci 9", "referente": "Travaglia Loris 349 8537577", "contatti": "-", "accesso": "Accesso libero", "costi": "Misto", "accesso_temporale": "Aperto in determinati giorni/orari", "lunedi": "Mattina, Pomeriggio, Sera", "martedi": "Mattina, Pomeriggio, Sera", "mercoledi": "Mattina, Pomeriggio, Sera", "giovedi": "Mattina, Pomeriggio, Sera", "sorgente": null, "venerdi": "Mattina, Pomeriggio, Sera", "sabato": "Mattina, Pomeriggio, Sera", "domenica": "Mattina", "periodo_apertura": "Sempre aperto", "mesi_apertura": "-", "occasioni_apertura": "-", "descrizione": "Bar ideale per colazioni e aperitivi, aperto tutti i giorni dalle 7.00 alle 22.00; la domenica dalle 7.00 alle 13.00. Offre caffè e affini, bibite e tramezzini (no pasti) - posti a sedere all'interno del locale, sul terrazzo e nell'area antistante l'ingresso.", "destinatari": "Tutte la età", "altri": "Tutti", "disabili": "Si, in autonomia", "parcheggi100m_riservati": "-", "parcheggi100m_gratuiti": "Si", "parcheggi100m_pagamento": "-", "parcheggi100m_disabili": "Si", "data_aggiornamento": "25/8/2025", "note": "Molto frequentato", "url": "-", "foto": "https://i.postimg.cc/1zXqLXy2/Screenshot-From-2026-07-06-00-30-42.png", "osm_id": "way/78363327" }, "geometry": { "type": "Point", "coordinates": [ 11.154621, 46.066165 ] } },
{ "type": "Feature", "properties": { "nome": "Bar Al Canton", "servizio": "Ristorazione e agriturismi", "attore": "privato", "indirizzo": "Piazza Manci 21", "referente": "Daniela Tonezzer - cell. 3395717713", "contatti": "-", "accesso": "Accesso libero", "costi": "Misto", "accesso_temporale": "Aperto in determinati giorni/orari", "lunedi": "Mattina, Pomeriggio, Sera", "martedi": "Mattina, Pomeriggio, Sera", "mercoledi": "Mattina, Pomeriggio, Sera", "giovedi": "Mattina, Pomeriggio, Sera", "sorgente": null, "venerdi": "Mattina, Pomeriggio, Sera", "sabato": "Mattina, Pomeriggio, Sera", "domenica": "-", "periodo_apertura": "Sempre aperto", "mesi_apertura": "-", "occasioni_apertura": "-", "descrizione": "Bar ideale per colazioni e aperitivi (no pasti), aperto dal lunedì al sabato con orario 7.00-20.30. Posti a sedere all'interno e su plateatico esterno.", "destinatari": "Tutte la età", "altri": "Tutti", "disabili": "Si, in autonomia", "parcheggi100m_riservati": "-", "parcheggi100m_gratuiti": "Si", "parcheggi100m_pagamento": "-", "parcheggi100m_disabili": "Si", "data_aggiornamento": "25/8/2025", "note": "Molto frequentato", "url": "-", "foto": "-", "osm_id": "node/1620451932" }, "geometry": { "type": "Point", "coordinates": [ 11.155345, 46.066169 ] } },
{ "type": "Feature", "properties": { "nome": "Officina Meccanina Elettrauto Gommista", "servizio": "Servizi e attività economiche", "attore": "Autodelta srl unipersonale", "indirizzo": "Via Sommarive 2", "referente": "LORENZO ZORDAN", "contatti": "0461810667 -  info@autodeltapovo.it", "accesso": "Accesso libero", "costi": "A pagamento", "accesso_temporale": "Aperto in determinati giorni/orari", "lunedi": "Mattina, Pomeriggio", "martedi": "Mattina, Pomeriggio", "mercoledi": "Mattina, Pomeriggio", "giovedi": "Mattina, Pomeriggio", "sorgente": null, "venerdi": "Mattina, Pomeriggio", "sabato": "-", "domenica": "-", "periodo_apertura": "Sempre aperto", "mesi_apertura": "-", "occasioni_apertura": "-", "descrizione": "RIPARAZIONE AUTOVEICOLI - ELETTRAUTO - GOMMISTA", "destinatari": "Giovani (18–30 anni), Adulti (31–64 anni), Anziani (65+)", "altri": "Tutti", "disabili": "Si, previa assistenza", "parcheggi100m_riservati": "Si", "parcheggi100m_gratuiti": "Si", "parcheggi100m_pagamento": "No", "parcheggi100m_disabili": "No", "data_aggiornamento": "26/8/2025", "note": "Molto frequentata soprattutto dagli studenti per il pranzo.", "url": "https://www.facebook.com/povoTN/?locale=it_IT", "foto": "https://i.postimg.cc/g2Z94qZQ/487782337-2429034280792869-7639118603765257687-n.jpg", "osm_id": "node/556932210" }, "geometry": { "type": "Point", "coordinates": [ 11.150402, 46.063956 ] } },
{ "type": "Feature", "properties": { "nome": "Pane e non solo", "servizio": "Ristorazione e agriturismi", "attore": "Privato", "indirizzo": "Via Don Dallafior, 2", "referente": "Cristina Merz  3487896070", "contatti": "-", "accesso": "Accesso libero", "costi": "A pagamento", "accesso_temporale": "Aperto in determinati giorni/orari", "lunedi": "Mattina, Pomeriggio", "martedi": "Mattina, Pomeriggio", "mercoledi": "Mattina, Pomeriggio", "giovedi": "Mattina, Pomeriggio", "sorgente": null, "venerdi": "Mattina, Pomeriggio", "sabato": "Mattina", "domenica": "Mattina", "periodo_apertura": "Sempre aperto", "mesi_apertura": "-", "occasioni_apertura": "-", "descrizione": "Si pagano gli acquisti/consumazioni", "destinatari": "Tutte la età", "altri": "Tutti", "disabili": "Si, in autonomia", "parcheggi100m_riservati": "No", "parcheggi100m_gratuiti": "Si", "parcheggi100m_pagamento": "-", "parcheggi100m_disabili": "-", "data_aggiornamento": "26/8/2025", "note": "abbastanza frequentata. Fa anche servizi per eventi.", "url": "https://www.facebook.com/p/Pane-e-non-solo-100064010741129/", "foto": "https://i.postimg.cc/Kz9smRTv/480857872-1060391449437870-1111391171880645464-n.jpg", "osm_id": "node/4725510687" }, "geometry": { "type": "Point", "coordinates": [ 11.154277, 46.0657 ] } },
{ "type": "Feature", "properties": { "nome": "Gelateria Dolomeis", "servizio": "Ristorazione e agriturismi", "attore": "Privato", "indirizzo": "Piazza Manci", "referente": "Degasperi Francesco 3335625279", "contatti": "-", "accesso": "Accesso libero", "costi": "A pagamento", "accesso_temporale": "Aperto in determinati giorni/orari", "lunedi": "-", "martedi": "Mattina, Pomeriggio, Sera", "mercoledi": "Mattina, Pomeriggio, Sera", "giovedi": "Mattina, Pomeriggio, Sera", "sorgente": null, "venerdi": "Mattina, Pomeriggio, Sera", "sabato": "Mattina, Pomeriggio, Sera", "domenica": "Mattina, Pomeriggio, Sera", "periodo_apertura": "Solo in alcuni periodi dell'anno", "mesi_apertura": "Marzo, Aprile, Maggio, Giugno, Luglio, Agosto, Settembre, Ottobre", "occasioni_apertura": "-", "descrizione": "Chiosco che produce gelato artigianale, torte-gelato e affini, offrendo anche un servizio a domicilio con la cargo bike. Simpatica la proposta di coppe speciali che riprendono il nome dei principali promontori attorno a Povo: Sant'Agata, Cimirlo, Marzola, Celva e Chegul.", "destinatari": "Tutte la età", "altri": "Tutti", "disabili": "Si, in autonomia", "parcheggi100m_riservati": "-", "parcheggi100m_gratuiti": "Si", "parcheggi100m_pagamento": "-", "parcheggi100m_disabili": "-", "data_aggiornamento": "26/8/2025", "note": "Abbastanza frequentata", "url": "https://www.gelateriadolomeis.it/", "foto": "https://i.postimg.cc/6q2zwzwP/488650287-1104337411710481-2943249556142547723-n.jpg", "osm_id": "way/823542138" }, "geometry": { "type": "Point", "coordinates": [ 11.154355, 46.06601 ] } },
{ "type": "Feature", "properties": { "nome": "Estetica Mia", "servizio": "Servizi e attività economiche", "attore": "Estetica Mia di Mosna Alessandra", "indirizzo": "Via della Resistenza 25", "referente": "MOSNA ALESSANDRA", "contatti": "0461811061 - esteticamia15@gmail.com - www.esteticamia.it", "accesso": "Accesso libero", "costi": "A pagamento", "accesso_temporale": "Aperto in determinati giorni/orari", "lunedi": "Pomeriggio, Sera", "martedi": "Mattina, Pomeriggio, Sera", "mercoledi": "Mattina, Pomeriggio", "giovedi": "Pomeriggio, Sera", "sorgente": null, "venerdi": "Mattina, Pomeriggio, Sera", "sabato": "-", "domenica": "-", "periodo_apertura": "Sempre aperto", "mesi_apertura": "-", "occasioni_apertura": "-", "descrizione": "TRATTAMENTI VISO E CORPO PROFESSIONALI", "destinatari": "Adolescenti (11–17 anni), Giovani (18–30 anni), Adulti (31–64 anni), Anziani (65+)", "altri": "Turisti / Visitatori, Sportivi / Escursionisti, Studenti, Lavoratori / Pendolari, Persone fragili o in situazione di svantaggio sociale", "disabili": "Si, previa assistenza", "parcheggi100m_riservati": "No", "parcheggi100m_gratuiti": "Si", "parcheggi100m_pagamento": "No", "parcheggi100m_disabili": "No", "data_aggiornamento": "26/8/2025", "note": "Mediamente frequentata", "url": "https://esteticamia.it", "foto": "https://esteticamia.it/mt-content/uploads/2025/03/foto-estetica-mia-staff-25.jpg", "osm_id": "node/13990921963" }, "geometry": { "type": "Point", "coordinates": [ 11.155608, 46.066208 ] } },
{ "type": "Feature", "properties": { "nome": "Pizzeria Orostube", "servizio": "Ristorazione e agriturismi", "attore": "Privato", "indirizzo": "Via Sommarive, 10", "referente": "Gianni Giovannini  0461-816073", "contatti": "-", "accesso": "Accesso libero", "costi": "A pagamento", "accesso_temporale": "Aperto in determinati giorni/orari", "lunedi": "Mattina, Sera", "martedi": "Mattina, Sera", "mercoledi": "Mattina, Sera", "giovedi": "Mattina, Sera", "sorgente": null, "venerdi": "Mattina, Sera", "sabato": "Mattina, Sera", "domenica": "-", "periodo_apertura": "Sempre aperto", "mesi_apertura": "-", "occasioni_apertura": "-", "descrizione": "-", "destinatari": "Tutte la età", "altri": "Tutti", "disabili": "Si, in autonomia", "parcheggi100m_riservati": "Si", "parcheggi100m_gratuiti": "Si", "parcheggi100m_pagamento": "-", "parcheggi100m_disabili": "-", "data_aggiornamento": "26/8/2025", "note": "molto frequentato. Non accessibile ai cani.", "url": "https://orostube.it/", "foto": "https://orostube.it/public/uploads/images/restaurants/2015-12-13-10-54-06-IMG_8112.jpg", "osm_id": "node/288938675" }, "geometry": { "type": "Point", "coordinates": [ 11.150456, 46.064754 ] } },
{ "type": "Feature", "properties": { "nome": "Pizza Rio", "servizio": "Ristorazione e agriturismi", "attore": "Privato", "indirizzo": "Via della Resistenza 9/A", "referente": "Reale Leonardo  tel.0461811555 cell. 3457641322", "contatti": "-", "accesso": "Accesso libero", "costi": "A pagamento", "accesso_temporale": "Aperto in determinati giorni/orari", "lunedi": "Mattina, Sera", "martedi": "Mattina, Sera", "mercoledi": "Mattina, Sera", "giovedi": "Mattina, Sera", "sorgente": null, "venerdi": "Mattina, Sera", "sabato": "Sera", "domenica": "Sera", "periodo_apertura": "Sempre aperto", "mesi_apertura": "-", "occasioni_apertura": "-", "descrizione": "Offre soprattutto pizze da asporto con qualche tavolo per la consumazione sul posto non servita.", "destinatari": "Tutte la età", "altri": "-", "disabili": "Si, in autonomia", "parcheggi100m_riservati": "-", "parcheggi100m_gratuiti": "Si", "parcheggi100m_pagamento": "-", "parcheggi100m_disabili": "-", "data_aggiornamento": "27/8/2025", "note": "molto frequentata soprattutto dagli studenti per il pranzo.", "url": "https://pizzariopovo.it/", "foto": "https://pizzariopovo.it/__l5e/assets-v1/6028d2da-a6f2-499c-9441-166ef54e735c/pizzario-logo.png", "osm_id": "node/289227941" }, "geometry": { "type": "Point", "coordinates": [ 11.150447, 46.064749 ] } },
{ "type": "Feature", "properties": { "nome": "Agritur Verderame", "servizio": "Ristorazione e agriturismi", "attore": "Privato", "indirizzo": "Via della Selva, 49 38123 – Oltrecastello (TN)", "referente": "LUCA LANER +39 3485114105", "contatti": "info@agriturverderame.it\nwww.agriturverderame.it", "accesso": "Con prenotazione", "costi": "A pagamento", "accesso_temporale": "Sempre aperto", "lunedi": "-", "martedi": "-", "mercoledi": "-", "giovedi": "-", "sorgente": null, "venerdi": "-", "sabato": "-", "domenica": "-", "periodo_apertura": "Sempre aperto", "mesi_apertura": "-", "occasioni_apertura": "-", "descrizione": "Il silenzio della natura e il foliage dei vigneti, il profilo delle montagne e il colore del cielo, tra benessere, sport e relax.\nTanti elementi s’incontrano all’Agritur Verderame per regalarti\nla vacanza perfetta, nella natura ad un passo dalla città. Scoprici!", "destinatari": "Tutte la età", "altri": "Turisti / Visitatori, Sportivi / Escursionisti, Famiglie, Lavoratori / Pendolari, Associazioni / Gruppi organizzati", "disabili": "Si, previa assistenza", "parcheggi100m_riservati": "Si", "parcheggi100m_gratuiti": "Si", "parcheggi100m_pagamento": "-", "parcheggi100m_disabili": "-", "data_aggiornamento": "27/8/2025", "note": "Struttura nuova", "url": "https://www.agriturverderame.it/", "foto": "https://lirp.cdn-website.com/a1e16fe5/dms3rep/multi/opt/hero_section-32cbf134-1920w.png", "osm_id": "way/562069894" }, "geometry": { "type": "Point", "coordinates": [ 11.169766, 46.077819 ] } },
{ "type": "Feature", "properties": { "nome": "Agritur 8 Grappoli", "servizio": "Ristorazione e agriturismi", "attore": "Privato", "indirizzo": "Via Graffiano, 14/E – TN", "referente": "Giorgia Lorenz  3474331891", "contatti": "+39 392 530 6450\nwww.8grappoliagritur.com\ninfo@8grappoliagritur.com\nfacebook.com/8grappoli/\ninstagram.com/8grappoli_agritur/", "accesso": "Con prenotazione", "costi": "A pagamento", "accesso_temporale": "Sempre aperto", "lunedi": "-", "martedi": "-", "mercoledi": "-", "giovedi": "-", "sorgente": null, "venerdi": "-", "sabato": "-", "domenica": "-", "periodo_apertura": "Sempre aperto", "mesi_apertura": "-", "occasioni_apertura": "-", "descrizione": "Un sogno e un progetto che portavamo avanti da qualche anno. Il nostro scopo era quello di creare un punto d’incontro tra noi, la nostra azienda, i nostri prodotti e il consumatore finale. Ci piace pensare che attraverso l’agritur possiamo mostrare quello che facciamo e soprattutto come lo facciamo.", "destinatari": "Tutte la età", "altri": "Turisti / Visitatori, Lavoratori / Pendolari", "disabili": "Si, in autonomia", "parcheggi100m_riservati": "Si", "parcheggi100m_gratuiti": "Si", "parcheggi100m_pagamento": "-", "parcheggi100m_disabili": "-", "data_aggiornamento": "27/8/2025", "note": "Nel 2019 siamo riusciti a realizzare l’Agritur 8 Grappoli", "url": "https://www.8grappoliagritur.com/", "foto": "https://www.8grappoliagritur.com/wp-content/uploads/2025/10/home-autunno.jpg", "osm_id": "way/770869614" }, "geometry": { "type": "Point", "coordinates": [ 11.148583, 46.062164 ] } },
{ "type": "Feature", "properties": { "nome": "Agritur La Tenuta", "servizio": "Ristorazione e agriturismi", "attore": "Privato", "indirizzo": "via della Selva, 27A - 38123 - Trento (TN) - ITALIA", "referente": "GRISENTI GIUSEPPE  +39 329 878 2648", "contatti": "www.agriturlatenuta.it\nreception@agriturlatenuta.it\nFacebook\n Instagram\n Airbnb\n Youtube", "accesso": "Con prenotazione", "costi": "A pagamento", "accesso_temporale": "Sempre aperto", "lunedi": "-", "martedi": "-", "mercoledi": "-", "giovedi": "-", "sorgente": null, "venerdi": "-", "sabato": "-", "domenica": "-", "periodo_apertura": "Sempre aperto", "mesi_apertura": "-", "occasioni_apertura": "-", "descrizione": "Il nostro complesso, situato a pochi minuti dal centro storico di Trento, è una residenza esclusiva ed elegante, dove si fondono in modo armonioso elementi naturali e urbani.\nPerfetta per soggiorni brevi e disponibile anche per affitti medio-lunghi, offre ambienti spaziosi, luminosi e accoglienti, dal design raffinato e il massimo comfort.", "destinatari": "Tutte la età", "altri": "Turisti / Visitatori, Studenti, Lavoratori / Pendolari", "disabili": "Si, in autonomia", "parcheggi100m_riservati": "Si", "parcheggi100m_gratuiti": "Si", "parcheggi100m_pagamento": "-", "parcheggi100m_disabili": "-", "data_aggiornamento": "27/8/2025", "note": "La posizione strategica rende questi alloggi la scelta ideale sia per un piacevole viaggio alla scoperta della gran varietà di punti d’interesse che circondano la zona, sia per dedicarsi alle diverse attività ricreative presenti nei dintorni.", "url": "https://www.agriturlatenuta.it/", "foto": "https://i.postimg.cc/wj7Nr3xY/unnamed.jpg", "osm_id": "way/783856494" }, "geometry": { "type": "Point", "coordinates": [ 11.164094, 46.076234 ] } },
{ "type": "Feature", "properties": { "nome": "Agritur Ponte Alto", "servizio": "Ristorazione e agriturismi", "attore": "Privato", "indirizzo": "Località Ponte Alto Via alla Cascata 27 – Loc.Povo", "referente": "FURLANI", "contatti": "+39 0461 810753\n+39 3471474234\n+39 3495811591", "accesso": "Con prenotazione", "costi": "A pagamento", "accesso_temporale": "Sempre aperto", "lunedi": "-", "martedi": "-", "mercoledi": "-", "giovedi": "-", "sorgente": null, "venerdi": "-", "sabato": "-", "domenica": "-", "periodo_apertura": "Sempre aperto", "mesi_apertura": "-", "occasioni_apertura": "-", "descrizione": "Per chi desidera un luogo immerso nel verde tra vigneti e un panorama mozzafiato, a un passo da Trento, l’Agriturismo Ponte Alto è la meta ideale.", "destinatari": "Tutte la età", "altri": "Turisti / Visitatori, Sportivi / Escursionisti, Famiglie, Lavoratori / Pendolari", "disabili": "Si, in autonomia", "parcheggi100m_riservati": "Si", "parcheggi100m_gratuiti": "Si", "parcheggi100m_pagamento": "-", "parcheggi100m_disabili": "-", "data_aggiornamento": "27/8/2025", "note": "Siamo lieti di accogliervi per un soggiorno all’insegna dell’ospitalità, tra cucina del territorio, spumanti e cosmetici naturali di nostra produzione, e suggerimenti per visitare questo splendido angolo di Trentino.", "url": "https://www.agriturpontealto.it/", "foto": "https://www.agriturpontealto.it/wp-content/uploads/2021/11/agritur-dallalto-2mm--scaled.jpg", "osm_id": "way/1162543897" }, "geometry": { "type": "Point", "coordinates": [ 11.153105, 46.072626 ] } },
{ "type": "Feature", "properties": { "nome": "Vigili del Fuoco", "servizio": "Associazioni e gruppi", "attore": "Associazione di volontariato", "indirizzo": "Via Sabbioni 22/1, Trento, Italy", "referente": "0461 811414", "contatti": "Instagram · vigili_del_fuoco_povo\npovo@distrettovvftrento.it\nhttp://www.distrettovvftrento.it/corpo.php?id=28", "accesso": "Accesso riservato a determinati utenti (es. tesserati, residenti, …)", "costi": "Gratuito", "accesso_temporale": "Aperto in determinati giorni/orari", "lunedi": "-", "martedi": "-", "mercoledi": "Sera", "giovedi": "-", "sorgente": null, "venerdi": "-", "sabato": "-", "domenica": "-", "periodo_apertura": "Solo in determinate occasioni", "mesi_apertura": "-", "occasioni_apertura": "QUANDO CI SONO SERVIZI ATTIVI O MANIFESTAZIONI", "descrizione": "è una associazione che si occupa di interventi d'urgenza per incendi-allarmi acqua-allarme animali-allarmi chiusure porte", "destinatari": "Adolescenti (11–17 anni), Giovani (18–30 anni), Adulti (31–64 anni)", "altri": "Famiglie, Associazioni / Gruppi organizzati", "disabili": "Si, in autonomia", "parcheggi100m_riservati": "Si", "parcheggi100m_gratuiti": "Si", "parcheggi100m_pagamento": "-", "parcheggi100m_disabili": "-", "data_aggiornamento": "27/8/2025", "note": "-", "url": "https://www.facebook.com/p/Vigili-del-Fuoco-volontari-di-Povo-100067896998748/", "foto": "https://i.postimg.cc/V61dzNw6/655598751-1248530024086886-4096332984785411283-n.jpg", "osm_id": "way/1266800064" }, "geometry": { "type": "Point", "coordinates": [ 11.155242, 46.067175 ] } },
{ "type": "Feature", "properties": { "nome": "Scuola Primaria Provinciale", "servizio": "Servizi e attività economiche", "attore": "Scuola Primaria U. Moggioli", "indirizzo": "Via dei Rivi 6", "referente": "PEGORETTI PIERA - DIRIGENTE SCOLASTICA", "contatti": "0461810355 - segr.ic.tn1@scuole.provincia.tn.it - www.ictrento1.it", "accesso": "Accesso riservato a determinati utenti (es. tesserati, residenti, …)", "costi": "Gratuito", "accesso_temporale": "Aperto in determinati giorni/orari", "lunedi": "Mattina, Pomeriggio", "martedi": "Mattina, Pomeriggio", "mercoledi": "Mattina, Pomeriggio", "giovedi": "Mattina, Pomeriggio", "sorgente": null, "venerdi": "Mattina", "sabato": "-", "domenica": "-", "periodo_apertura": "Solo in alcuni periodi dell'anno", "mesi_apertura": "Gennaio, Febbraio, Marzo, Aprile, Maggio, Giugno, Settembre, Ottobre, Novembre, Dicembre", "occasioni_apertura": "-", "descrizione": "SERVIZIO PUBBLICO CHE SI OCCUPA DELL'ISTRUZIONE SCOLASTICA PRIMARIA", "destinatari": "Bambini (0–10 anni)", "altri": "-", "disabili": "Si, in autonomia", "parcheggi100m_riservati": "Si", "parcheggi100m_gratuiti": "Si", "parcheggi100m_pagamento": "No", "parcheggi100m_disabili": "Si", "data_aggiornamento": "27/8/2025", "note": "struttura scolastisca regolarmente frequentata", "url": "https://www.ictrento1.it/luogo/scuola-primaria-g-dalla-fior/", "foto": "https://www.ictrento1.it/wp-content/uploads/2022/06/mog4.png", "osm_id": "way/180406222" }, "geometry": { "type": "Point", "coordinates": [ 11.153655, 46.064015 ] } },
{ "type": "Feature", "properties": { "nome": "Cabina Fototessere", "servizio": "Servizi e attività economiche", "attore": "Dedem SPA", "indirizzo": "-", "referente": "SERVIZIO CLIENTI 0693026870", "contatti": "06930261 - info@dedem.it - www.dedem.it", "accesso": "Accesso libero", "costi": "A pagamento", "accesso_temporale": "Sempre aperto", "lunedi": "-", "martedi": "-", "mercoledi": "-", "giovedi": "-", "sorgente": null, "venerdi": "-", "sabato": "-", "domenica": "-", "periodo_apertura": "Sempre aperto", "mesi_apertura": "-", "occasioni_apertura": "-", "descrizione": "PRODUZIONE FOTOTESSERE PER DOCUMENTI - COSTO 6 EURO", "destinatari": "Tutte la età", "altri": "Tutti", "disabili": "Si, previa assistenza", "parcheggi100m_riservati": "No", "parcheggi100m_gratuiti": "Si", "parcheggi100m_pagamento": "No", "parcheggi100m_disabili": "Si", "data_aggiornamento": "27/8/2025", "note": "Struttura mediamente frequentata", "url": "https://dedem.it/cabine-fototessera/", "foto": "https://dedem.it/wp-content/uploads/2023/05/viso-evolution-1-1-1.jpg", "osm_id": "node/13990998128" }, "geometry": { "type": "Point", "coordinates": [ 11.152402, 46.064386 ] } },
{ "type": "Feature", "properties": { "nome": "Mercato Settimanale", "servizio": "Servizi e attività economiche", "attore": "Vari commercianti ambulanti", "indirizzo": "Piazza Manci - Povo", "referente": "-", "contatti": "-", "accesso": "Accesso libero", "costi": "A pagamento", "accesso_temporale": "Aperto in determinati giorni/orari", "lunedi": "-", "martedi": "Mattina", "mercoledi": "Mattina", "giovedi": "-", "sorgente": null, "venerdi": "-", "sabato": "Mattina", "domenica": "-", "periodo_apertura": "Sempre aperto", "mesi_apertura": "-", "occasioni_apertura": "-", "descrizione": "Mercato degli ambulanti, in determinati giorni della settimana, al mattino, in Piazza Manci. Il martedì: bancarella di frutta e verdura e abbigliamento, \nmercoledì: bancarelle di frutta e verdura, pane dolci tipici altoatesini, piante e fiori, \nsabato: rosticceria e friggitoria pollame, frutta e verdura.", "destinatari": "Tutte la età", "altri": "Tutti", "disabili": "Si, in autonomia", "parcheggi100m_riservati": "-", "parcheggi100m_gratuiti": "Si", "parcheggi100m_pagamento": "-", "parcheggi100m_disabili": "Si", "data_aggiornamento": "28/8/2025", "note": "Il mercato è funzionante nelle prime ore del mattino (verso le 7.30) e fino alle 13.00", "url": "https://www.comune.trento.it/Argomenti/Economia/Commercio-ambulante", "foto": "https://i.postimg.cc/0NhJbXXK/Chat-GPT-Image-Jul-6-2026-08-03-00-AM.png", "osm_id": null }, "geometry": { "type": "Point", "coordinates": [ 11.154465, 46.066002 ] } },
{ "type": "Feature", "properties": { "nome": "Scuola Equiparata dell'Infanzia \"Angelina Lorenzini\"", "servizio": "Servizi e attività economiche", "attore": "Scuola equiparata dell'infanzia di Povo suore Angelina Lorenzini", "indirizzo": "Via Pantè 1", "referente": "GRISENTI GIUSEPPE - 3356342205", "contatti": "0461810049/810970 - posta@scuolainfanziapovo.it - www.scuolainfanziapovo.it", "accesso": "Accesso riservato a determinati utenti (es. tesserati, residenti, …)", "costi": "Gratuito", "accesso_temporale": "Aperto in determinati giorni/orari", "lunedi": "Mattina, Pomeriggio", "martedi": "Mattina, Pomeriggio", "mercoledi": "Mattina, Pomeriggio", "giovedi": "Mattina, Pomeriggio", "sorgente": null, "venerdi": "Mattina, Pomeriggio", "sabato": "-", "domenica": "-", "periodo_apertura": "Solo in alcuni periodi dell'anno", "mesi_apertura": "Gennaio, Febbraio, Marzo, Aprile, Maggio, Giugno, Luglio, Settembre, Ottobre, Novembre, Dicembre", "occasioni_apertura": "-", "descrizione": "SERVIZIO PUBBLICO CHE SI OCCUPA DELLA GESTIONE DEI BAMBINI DA 3 AI 6 ANNI", "destinatari": "Bambini (0–10 anni)", "altri": "-", "disabili": "Si, previa assistenza", "parcheggi100m_riservati": "Si", "parcheggi100m_gratuiti": "Si", "parcheggi100m_pagamento": "No", "parcheggi100m_disabili": "Si", "data_aggiornamento": "29/8/2025", "note": "Struttura mediamente frequentata", "url": "https://www.scuolainfanziapovo.it", "foto": "https://www.scuolainfanziapovo.it/public/foto/scuola/scuola_007.jpg", "osm_id": "way/78362954" }, "geometry": { "type": "Point", "coordinates": [ 11.151896, 46.064721 ] } },
{ "type": "Feature", "properties": { "nome": "Scuola Provinciale dell'Infanzia \"M.C. CONOTTER\"", "servizio": "Servizi e attività economiche", "attore": "Scuola provinciale dell'infanzia \"M.C. CONOTTER\"", "indirizzo": "Via della Resistenza 48", "referente": "CHIARA NADALON - 0461496952", "contatti": "0461810574 - scuolainfanzia.povo@scuole.provincia.tn.it - www.vivoscuola.it", "accesso": "Accesso riservato a determinati utenti (es. tesserati, residenti, …)", "costi": "Gratuito", "accesso_temporale": "Aperto in determinati giorni/orari", "lunedi": "Mattina, Pomeriggio", "martedi": "Mattina, Pomeriggio", "mercoledi": "Mattina, Pomeriggio", "giovedi": "Mattina, Pomeriggio", "sorgente": null, "venerdi": "Mattina, Pomeriggio", "sabato": "-", "domenica": "-", "periodo_apertura": "Solo in alcuni periodi dell'anno", "mesi_apertura": "Gennaio, Febbraio, Marzo, Aprile, Maggio, Giugno, Luglio, Settembre, Ottobre, Novembre, Dicembre", "occasioni_apertura": "-", "descrizione": "SERVIZIO PUBBLICO CHE SI OCCUPA DELLA GESTIONE DEI BAMBINI DAI 3 AI 6 ANNI", "destinatari": "Bambini (0–10 anni)", "altri": "-", "disabili": "Si, previa assistenza", "parcheggi100m_riservati": "Si", "parcheggi100m_gratuiti": "Si", "parcheggi100m_pagamento": "No", "parcheggi100m_disabili": "Si", "data_aggiornamento": "29/8/2025", "note": "Struttura mediamente frequentata", "url": "https://www.vivoscuola.it/Scuole/Circolo-di-coordinamento-n.-3/Scuola-dell-Infanzia-di-Trento-Povo-M.C.-Conotter", "foto": "https://i.postimg.cc/C1pH924m/article-img-id-12806375-t-1775554302600.png", "osm_id": "way/189295614" }, "geometry": { "type": "Point", "coordinates": [ 11.161642, 46.06752 ] } },
{ "type": "Feature", "properties": { "nome": "Centro Servizi", "servizio": "Servizi e attività economiche", "attore": "APSP Margherita Grazioli", "indirizzo": "Via della Resistenza 61/D", "referente": "APSP MARGHERITA GRAZIOLI", "contatti": "0461 818101 - centroservizi@apspgrazioli.it - www.apspgrazioli.it", "accesso": "Accesso riservato a determinati utenti (es. tesserati, residenti, …)", "costi": "Misto", "accesso_temporale": "Aperto in determinati giorni/orari", "lunedi": "Mattina", "martedi": "Mattina", "mercoledi": "Mattina", "giovedi": "Mattina, Pomeriggio", "sorgente": null, "venerdi": "Mattina", "sabato": "-", "domenica": "-", "periodo_apertura": "Sempre aperto", "mesi_apertura": "-", "occasioni_apertura": "-", "descrizione": "Il Centro Servizi promuove attività motorie, culturali e servizi di cura e igiene rivolti a persone adulto/anziane del territorio. La Residenza Sanitaria Assistenziale (di seguito RSA) è una struttura socio-sanitaria residenziale dedicata a persone adulto/anziane non autosufficienti che necessitano di assistenza.", "destinatari": "Adulti (31–64 anni), Anziani (65+)", "altri": "Associazioni / Gruppi organizzati, Persone fragili o in situazione di svantaggio sociale, Anziani", "disabili": "Si, in autonomia", "parcheggi100m_riservati": "No", "parcheggi100m_gratuiti": "Si", "parcheggi100m_pagamento": "No", "parcheggi100m_disabili": "Si", "data_aggiornamento": "14/9/2025", "note": "Il Centro Servizi è facilmente raggiungibile sia con i mezzi pubblici sia con i mezzi privati. Dispone infatti di un ampio parcheggio coperto oppure scoperto con disco orario di 2 ore e si trova in corrispondenza della fermata degli autobus di linea urbana  n.5, n.13 e n. 16", "url": "https://www.apspgrazioli.it/", "foto": "https://www.apspgrazioli.it/var/apspgrazioli/storage/images/media/immagini/centro-polifunzionale/37580-1-ita-IT/Centro-Polifunzionale_reference.jpg", "osm_id": "way/161758820" }, "geometry": { "type": "Point", "coordinates": [ 11.158567, 46.065891 ] } },
{ "type": "Feature", "properties": { "nome": "Casa Melograno", "servizio": "Servizi e attività economiche", "attore": "APSP Margherita Grazioli", "indirizzo": "Via della Resistenza 61/D", "referente": "APSP MARGHERITA GRAZIOLI", "contatti": "0461 818101 - centroservizi@apspgrazioli.it - www.apspgrazioli.it", "accesso": "Accesso libero", "costi": "Gratuito", "accesso_temporale": "Aperto in determinati giorni/orari", "lunedi": "Mattina", "martedi": "Mattina", "mercoledi": "Mattina", "giovedi": "Mattina, Pomeriggio", "sorgente": null, "venerdi": "Mattina", "sabato": "-", "domenica": "-", "periodo_apertura": "Sempre aperto", "mesi_apertura": "-", "occasioni_apertura": "-", "descrizione": "Casa Melograno è un nuovo punto di vista sull'essere anziano, un nuovo servizio a disposizione di anziani e caregiver della collina est di Trento. Eroga servizi di risposta e sostegno concreto agli anziani e alle famiglie del territorio.\n\nhttps://www.apspgrazioli.it/Spazi/Casa-Melograno", "destinatari": "Adulti (31–64 anni), Anziani (65+)", "altri": "Famiglie, Persone fragili o in situazione di svantaggio sociale", "disabili": "Si, in autonomia", "parcheggi100m_riservati": "No", "parcheggi100m_gratuiti": "Si", "parcheggi100m_pagamento": "No", "parcheggi100m_disabili": "Si", "data_aggiornamento": "14/9/2025", "note": "Struttura nuova con accesso sbarrierato; dispone di ampio parcheggio coperto e scoperto con disco orario di 2 ore; adiacente alle fermate dell'autobus urbano di linea n. 5, n. 13 e n. 16", "url": "https://www.apspgrazioli.it/Spazi/Casa-Melograno", "foto": "https://www.apspgrazioli.it/var/apspgrazioli/storage/images/media/images/ingresso-casa-melograno/10070-2-ita-IT/Ingresso-Casa-Melograno_reference.jpg", "osm_id": null }, "geometry": { "type": "Point", "coordinates": [ 11.158264, 46.06571 ] } },
{ "type": "Feature", "properties": { "nome": "Punto Prelievi", "servizio": "Servizi e attività economiche", "attore": "APSP Margherita Grazioli", "indirizzo": "Via della Resistenza 61/E", "referente": "APSP MARGHERITA GRAZIOLI", "contatti": "0461 818156 - info@apspgrazioli.it - www.apspgrazioli.it", "accesso": "Con prenotazione", "costi": "Misto", "accesso_temporale": "Aperto in determinati giorni/orari", "lunedi": "-", "martedi": "-", "mercoledi": "Mattina", "giovedi": "-", "sorgente": null, "venerdi": "Mattina", "sabato": "-", "domenica": "-", "periodo_apertura": "Sempre aperto", "mesi_apertura": "-", "occasioni_apertura": "-", "descrizione": "Il Punto Prelievi è un ambulatorio dedicato ai prelievi di sangue e alla consegna di liquidi e materiali biologici per esami biochimici effettuati dai laboratori dell'Azienda Provinciale per i Servizi Sanitari.\n\nhttps://www.apspgrazioli.it/Spazi/Punto-Prelievi", "destinatari": "Tutte la età", "altri": "Tutti", "disabili": "Si, in autonomia", "parcheggi100m_riservati": "No", "parcheggi100m_gratuiti": "Si", "parcheggi100m_pagamento": "No", "parcheggi100m_disabili": "Si", "data_aggiornamento": "14/9/2025", "note": "È facilmente raggiungibile sia con i mezzi pubblici (linea urbana n. 5, n. 13 e n. 16) sia con quelli privati: è infatti dotato di ampio parcheggio coperto e scoperto con disco orario di 2 ore.", "url": "https://www.apspgrazioli.it/Spazi/Punto-Prelievi", "foto": "https://www.apspgrazioli.it/var/apspgrazioli/storage/images/media/immagini/totem-centro-polifunzionale-esterno/17465-1-ita-IT/Totem-Centro-Polifunzionale-esterno_reference.jpg", "osm_id": "node/5621650716" }, "geometry": { "type": "Point", "coordinates": [ 11.158036, 46.065813 ] } },
{ "type": "Feature", "properties": { "nome": "Famigla Cooperativa Povo", "servizio": "Servizi e attività economiche", "attore": "Famiglia Cooperativa Povo", "indirizzo": "Piazza Manci", "referente": "FABRIZIO BELLOTTI (DIRETTORE)", "contatti": "0461 810268 - fcpovo@famcooperativa.it - www.famigliacooperativapovo.it", "accesso": "Accesso libero", "costi": "A pagamento", "accesso_temporale": "Aperto in determinati giorni/orari", "lunedi": "Mattina, Pomeriggio", "martedi": "Mattina, Pomeriggio", "mercoledi": "Mattina, Pomeriggio", "giovedi": "Mattina, Pomeriggio", "sorgente": null, "venerdi": "Mattina, Pomeriggio", "sabato": "Mattina, Pomeriggio", "domenica": "-", "periodo_apertura": "Sempre aperto", "mesi_apertura": "-", "occasioni_apertura": "-", "descrizione": "La Famiglia Cooperativa di Povo, oltre alla consueta attività di vendita al dettaglio, garantisce molteplici servizi quali il servizio di consegna a domicilio, sconti e convenzioni per i soci, servizio di attivazione telefonia mobile Coopvoce e prenotazione libri di testo per la scuola a prezzi scontati. A queste attività si affiancano interventi a sostegno della comunità locale con contributi a favore delle numerose associazioni culturali e ricreative presenti sul territorio.", "destinatari": "Tutte la età", "altri": "Tutti", "disabili": "Si, in autonomia", "parcheggi100m_riservati": "Si", "parcheggi100m_gratuiti": "Si", "parcheggi100m_pagamento": "No", "parcheggi100m_disabili": "Si", "data_aggiornamento": "14/9/2025", "note": "E' il principale negozio di alimentari del sobborgo, con orario continuato dal lunedì al sabato. Adiacente alla fermata della linea urbana n.5, n.13 e n.16.\n\n www.famigliacooperativapovo.it", "url": "https://famigliacooperativapovo.it/", "foto": "https://famigliacooperativapovo.it/wp-content/uploads/sites/5/2023/06/coopertina-1.jpg", "osm_id": "node/288911508" }, "geometry": { "type": "Point", "coordinates": [ 11.154406, 46.066217 ] } },
{ "type": "Feature", "properties": { "nome": "Famiglia Cooperativa Povo", "servizio": "Servizi e attività economiche", "attore": "Famiglia Cooperativa Povo", "indirizzo": "Via della Resistenza n. 79, 38123 Povo TN", "referente": "FABRIZIO BELLOTTI -DIRETTORE", "contatti": "0461 810269 - fcpovo@famcooperativa.it - www.famigliacooperativapovo.it/punti-vendita", "accesso": "Accesso libero", "costi": "A pagamento", "accesso_temporale": "Aperto in determinati giorni/orari", "lunedi": "Mattina, Pomeriggio", "martedi": "Mattina", "mercoledi": "Mattina, Pomeriggio", "giovedi": "Mattina", "sorgente": null, "venerdi": "Mattina, Pomeriggio", "sabato": "Mattina", "domenica": "-", "periodo_apertura": "Sempre aperto", "mesi_apertura": "-", "occasioni_apertura": "-", "descrizione": "La Famiglia Cooperativa di Povo, oltre alla consueta attività di vendita al dettaglio, garantisce molteplici servizi quali il servizio di consegna a domicilio, sconti e convenzioni per i soci, servizio di attivazione telefonia mobile Coopvoce e prenotazione libri di testo per la scuola a prezzi scontati. A queste attività si affiancano interventi a sostegno della comunità locale con contributi a favore delle numerose associazioni culturali e ricreative presenti sul territorio.", "destinatari": "Tutte la età", "altri": "Tutti", "disabili": "Si, in autonomia", "parcheggi100m_riservati": "No", "parcheggi100m_gratuiti": "Si", "parcheggi100m_pagamento": "No", "parcheggi100m_disabili": "No", "data_aggiornamento": "14/9/2025", "note": "Piccolo negozio, nella frazione di Sprè, a nord del sobborgo di Povo. Si trova in prossimità della fermata dell'autobus urbano di linea n. 5\n\nwww.https://famigliacooperativapovo.it/punti-vendita/", "url": "https://famigliacooperativapovo.it/", "foto": "https://famigliacooperativapovo.it/wp-content/uploads/sites/5/2023/06/Spre-web.jpg", "osm_id": "node/556978697" }, "geometry": { "type": "Point", "coordinates": [ 11.161291, 46.069323 ] } },
{ "type": "Feature", "properties": { "nome": "Ufficio Postale", "servizio": "Servizi e attività economiche", "attore": "Poste Italiane", "indirizzo": "Piazza Manci 4", "referente": "-", "contatti": "0461 810764", "accesso": "Accesso libero", "costi": "Misto", "accesso_temporale": "Aperto in determinati giorni/orari", "lunedi": "Mattina", "martedi": "-", "mercoledi": "Mattina", "giovedi": "-", "sorgente": null, "venerdi": "Mattina", "sabato": "-", "domenica": "-", "periodo_apertura": "Sempre aperto", "mesi_apertura": "-", "occasioni_apertura": "-", "descrizione": "Oltre a fornire servizi postali di base, il Gruppo Poste Italiane offre in Italia prodotti integrati e servizi di risparmio postale, comunicazione, logistica e servizi finanziari.\nIl gruppo offre inoltre un'ampia gamma di prodotti postali, dai servizi di corriere espresso a una vasta scelta di prodotti finanziari.\nAlcuni dei servizi erogati:\nCorrispondenza (Lettera, Raccomandata, Telegramma)\nSpedizioni (Pacchi, Confezioni preaffrancate, Rete Punto Poste).\nConti (Conti BancoPosta, Servizi accessori).\nCarte (Carte Postepay, Carte di debito, Carte di credito).\nInvio denaro (Vaglia, Moneygram, Western Union)\nFinanziamenti (Prestiti BancoPosta, Mutui BancoPosta)\nBuoni fruttiferi postali, Libretti postali\nServizi digitali certificati (Identità digitale PosteID, Posta Elettronica Certificata)\nRilascio documenti (Successioni, Passaporti, Permessi di soggiorno, Carta Rdc)\nINPS (Buoni lavoro, Emissione carte INPS)", "destinatari": "Giovani (18–30 anni), Adulti (31–64 anni), Anziani (65+)", "altri": "Tutti", "disabili": "Si, in autonomia", "parcheggi100m_riservati": "No", "parcheggi100m_gratuiti": "Si", "parcheggi100m_pagamento": "No", "parcheggi100m_disabili": "Si", "data_aggiornamento": "14/9/2025", "note": "L'ufficio postale si trova nella piazza del sobborgo, nelle immediate vicinanze della fermata del trasporto pubblico urbano linee n.5, n.13 e n.16\n\nwww.ufficio-postale.it/trento/4827-poste-italiane/", "url": "https://www.poste.it/prenotazione/vieni-in-poste/?idPunto=mrx8gqYK6Cjvu8Lxc5v78A&tipoPunto=UfficioPostale&search=Piazza+Giannantonio+Manci+4,+38123+Trento", "foto": "https://www.ufficio-postale.it/wp-content/uploads/2020/11/AF1QipNIJACI8mAsOEYySADNyDthvitvfC3zwf4sCzfSw408-h544-k-no-225x300.jpg", "osm_id": "node/258015066" }, "geometry": { "type": "Point", "coordinates": [ 11.153905, 46.065966 ] } },
{ "type": "Feature", "properties": { "nome": "Farmacia Comunale", "servizio": "Servizi e attività economiche", "attore": "Comune di Trento", "indirizzo": "Piazza Manci 5", "referente": "dott.ssa Lorenza Facchinelli", "contatti": "Tel. 0461 810525 farm06@farcomtrento.it https://www.farcomtrento.com/farmacie/farmacia-povo/", "accesso": "Accesso libero", "costi": "A pagamento", "accesso_temporale": "Sempre aperto", "lunedi": "-", "martedi": "-", "mercoledi": "-", "giovedi": "-", "sorgente": null, "venerdi": "-", "sabato": "-", "domenica": "-", "periodo_apertura": "Sempre aperto", "mesi_apertura": "-", "occasioni_apertura": "-", "descrizione": "Farmacia, con offerta di servizi aggiuntivi per la salute: misurazione pressione, profilo lipidico completo e emoglobina glicata, elettrocardiogramma, controllo del peso, test intolleranza alimentare, test diagnostici per lo streptococco di tipo A, angolo allattamento neonati, altri servizi come raccolta farmaci scaduti e noleggio strumenti.", "destinatari": "Tutte la età", "altri": "Tutti", "disabili": "Si, in autonomia", "parcheggi100m_riservati": "-", "parcheggi100m_gratuiti": "Si", "parcheggi100m_pagamento": "-", "parcheggi100m_disabili": "Si", "data_aggiornamento": "1/11/2025", "note": "Farmacia molto frequentata. Orario 8.15 - 12.15  15.15 - 19.15 Sabato 8.15 - 12.15", "url": "https://www.farcomtrento.com/farmacie/farmacia-povo/", "foto": "https://www.farcomtrento.com/wp-content/uploads/2025/01/povo1.jpg", "osm_id": "node/288917447" }, "geometry": { "type": "Point", "coordinates": [ 11.154112, 46.066276 ] } },
{ "type": "Feature", "properties": { "nome": "AB Cartocopisteria", "servizio": "Servizi e attività economiche", "attore": "Soggetto privato", "indirizzo": "Via della Resistenza 48", "referente": "Ciurletti Roberta", "contatti": "0461 816168 -  info@abcopy.eu - https://www.abcopy.eu/", "accesso": "Accesso libero", "costi": "A pagamento", "accesso_temporale": "Sempre aperto", "lunedi": "-", "martedi": "-", "mercoledi": "-", "giovedi": "-", "sorgente": null, "venerdi": "-", "sabato": "-", "domenica": "-", "periodo_apertura": "Sempre aperto", "mesi_apertura": "-", "occasioni_apertura": "-", "descrizione": "Negozio di stampa e copisteria, cancelleria, giochi, articoli per la persona e per la casa, articoli regalo, toner e cartucce,  elettronica. Servizi di stampa e rilegatura tesi, UPS Access Point", "destinatari": "Tutte la età", "altri": "Tutti", "disabili": "Si, previa assistenza", "parcheggi100m_riservati": "-", "parcheggi100m_gratuiti": "Si", "parcheggi100m_pagamento": "-", "parcheggi100m_disabili": "Si", "data_aggiornamento": "1/11/2025", "note": "-", "url": "https://www.abcopy.eu/", "foto": "https://i.postimg.cc/y8dHSQc5/APNQk-AEnnq-R87Xs-U9hc-YV7ZPam42as-GKRHz-K2en-LZte-K7Ug-SLy-UVeb9x-RYq-Ze8Hhb-NT0lc-FQHLz5IRay-SHDB.jpg", "osm_id": "node/4179376123" }, "geometry": { "type": "Point", "coordinates": [ 11.156069, 46.066273 ] } },
{ "type": "Feature", "properties": { "nome": "Fontana - via Madonnina", "servizio": "Luoghi/monumenti di interesse storico/artistico e fontane", "attore": "Circoscrizione di Povo", "indirizzo": "Via Madonnina", "referente": "Ufficio Strade e aree demaniali", "contatti": "0461 884780", "accesso": "Accesso libero", "costi": "Gratuito", "accesso_temporale": "Sempre aperto", "lunedi": "-", "martedi": "-", "mercoledi": "-", "giovedi": "-", "sorgente": null, "venerdi": "-", "sabato": "-", "domenica": "-", "periodo_apertura": "Sempre aperto", "mesi_apertura": "-", "occasioni_apertura": "-", "descrizione": "Piccola fontana pubblica d’acqua potabile", "destinatari": "Tutte la età", "altri": "Tutti", "disabili": "Si, in autonomia", "parcheggi100m_riservati": "Si", "parcheggi100m_gratuiti": "Si", "parcheggi100m_pagamento": "-", "parcheggi100m_disabili": "-", "data_aggiornamento": "16/2/2026", "note": "non funzionante nei mesi invernali", "url": "https://www.google.com/maps/@46.0650095,11.156563,3a,48.8y,200.47h,80.89t/data=!3m7!1e1!3m5!1swB9X8s6vQYIsDG8IcbClrw!2e0!6shttps:%2F%2Fstreetviewpixels-pa.googleapis.com%2Fv1%2Fthumbnail%3Fcb_client%3Dmaps_sv.tactile%26w%3D900%26h%3D600%26pitch%3D9.106229768403935%26panoid%3DwB9X8s6vQYIsDG8IcbClrw%26yaw%3D200.471498993567!7i16384!8i8192?entry=ttu&g_ep=EgoyMDI2MDYyOS4wIKXMDSoASAFQAw%3D%3D", "foto": "https://i.postimg.cc/SKMHWws3/Screenshot-From-2026-07-06-07-51-08.png", "osm_id": "node/279462074" }, "geometry": { "type": "Point", "coordinates": [ 11.156554, 46.06494 ] } },
{ "type": "Feature", "properties": { "nome": "Fontana - Piazza Manci", "servizio": "Luoghi/monumenti di interesse storico/artistico e fontane", "attore": "Circoscrizione di Povo", "indirizzo": "Piazza Manci", "referente": "Ufficio Strade e aree demaniali", "contatti": "0461884780", "accesso": "Accesso libero", "costi": "Gratuito", "accesso_temporale": "Sempre aperto", "lunedi": "-", "martedi": "-", "mercoledi": "-", "giovedi": "-", "sorgente": null, "venerdi": "-", "sabato": "-", "domenica": "-", "periodo_apertura": "Sempre aperto", "mesi_apertura": "-", "occasioni_apertura": "-", "descrizione": "Fontana storica della piazza, usata come arredo urbano e punto d’acqua potabile", "destinatari": "Tutte la età", "altri": "Tutti", "disabili": "Si, in autonomia", "parcheggi100m_riservati": "Si", "parcheggi100m_gratuiti": "Si", "parcheggi100m_pagamento": "-", "parcheggi100m_disabili": "Si", "data_aggiornamento": "16/2/2026", "note": "-", "url": "https://www.google.com/maps/@46.0661771,11.1539368,3a,75y,70.93h,87.84t/data=!3m7!1e1!3m5!1s_cIGtCPgQt-VKcGvqDChdA!2e0!6shttps:%2F%2Fstreetviewpixels-pa.googleapis.com%2Fv1%2Fthumbnail%3Fcb_client%3Dmaps_sv.tactile%26w%3D900%26h%3D600%26pitch%3D2.1550199801650365%26panoid%3D_cIGtCPgQt-VKcGvqDChdA%26yaw%3D70.9338537487161!7i13312!8i6656?entry=ttu&g_ep=EgoyMDI2MDYyOS4wIKXMDSoASAFQAw%3D%3D", "foto": "https://upload.wikimedia.org/wikipedia/commons/5/5c/Trento-Povo-fountain_in_piazza_Giannantonio_Manci.jpg", "osm_id": "node/556932263" }, "geometry": { "type": "Point", "coordinates": [ 11.154006, 46.066184 ] } }
]
}
